JILIN-1 GAOFEN 3A       
1 44312U 19032C   26179.75120402  .00010477  00000+0  33262-3 0  9992
2 44312  44.9756 293.2818 0005744 354.8072   5.2753 15.32880918389617
WT 1B                   
1 44316U 19032G   26179.84191612  .00009848  00000+0  37022-3 0  9995
2 44316  44.9711 357.3143 0009950 306.7326  53.2642 15.27405233388869
PROX-1                  
1 44339U 19036A   26179.90496288  .00012704  00000+0  12281-2 0  9992
2 44339  23.9961  35.9614 0005521 169.9714 190.0896 14.90892987375222
NPSAT1                  
1 44340U 19036B   26179.95962692  .00005347  00000+0  74696-3 0  9990
2 44340  23.9973 141.0772 0007140 346.4007  13.6296 14.74679425374233
FORMOSAT 7-3            
1 44343U 19036E   26179.88122996  .00004227  00000+0  23346-3 0  9992
2 44343  23.9987  98.0469 0000982  67.5934 292.4674 15.09876742385017
FORMOSAT 7-1            
1 44349U 19036L   26179.71531764  .00002569  00000+0  19444-3 0  9998
2 44349  23.9992 314.6743 0000577 347.1245  12.9241 14.96554350386382
FORMOSAT 7-4            
1 44350U 19036M   26179.87120692  .00002656  00000+0  20196-3 0  9994
2 44350  23.9998  15.7272 0001009 344.8951  15.1520 14.96546647385828
FORMOSAT 7-2            
1 44351U 19036N   26179.96022799  .00002572  00000+0  19479-3 0  9993
2 44351  23.9992  69.4409 0000469 356.4775   3.5723 14.96544868385350
FORMOSAT 7-6            
1 44353U 19036Q   26179.55982852  .00002310  00000+0  17218-3 0  9994
2 44353  23.9971 252.9587 0000820 216.3971 143.6474 14.96555263383525
FORMOSAT 7-5            
1 44358U 19036V   26179.33702998  .00002326  00000+0  17363-3 0  9994
2 44358  23.9968 193.2086 0000147  38.9613 321.0899 14.96557205384027
METEOR-M2 2             
1 44387U 19038A   26179.97576862 -.00000184  00000+0 -59768-4 0  9995
2 44387  98.9143 167.4351 0001574  31.4528 328.6745 14.24368328362972
GLOBAL-4                
1 44499U 19054E   26179.69539727  .00044547  00000+0  43666-3 0  9993
2 44499  45.0030 169.9455 0004273  56.3648 303.7657 15.65411793382164
ZY-1 02D                
1 44528U 19059A   26179.98877355  .00000022  00000+0  23294-4 0  9991
2 44528  98.6727 241.4653 0003993 356.2215   3.8940 14.35263842356036
TAURUS-1 (JINNIUZUO 1)  
1 44530U 19059C   26179.93328869  .00006191  00000+0  98932-3 0  9993
2 44530  98.6414 345.4908 0007286 273.2515  86.7857 14.72213448360377
ZHUHAI-1 03B            
1 44536U 19060C   26179.96414545  .00028490  00000+0  42924-3 0  9997
2 44536  97.5533 338.3705 0007561 268.7531  91.2857 15.54737139378157
ZHUHAI-1 03D            
1 44538U 19060E   26179.97287932  .00029661  00000+0  52164-3 0  9996
2 44538  97.5391 330.3985 0006725 252.0505 108.0013 15.50416762377906
ZHUHAI-1 03E            
1 44539U 19060F   26179.93002677  .00016201  00000+0  38897-3 0  9997
2 44539  97.5620 330.2875 0004987 349.4330  10.6811 15.41433126377574
GAOFEN-7                
1 44703U 19072A   26179.97273948  .00003879  00000+0  17549-3 0  9996
2 44703  97.2426 240.9945 0017563   1.1176 359.0097 15.21346979369436
JILIN-1 GAOFEN 2A       
1 44777U 19075A   26179.96514574  .00013903  00000+0  35453-3 0  9995
2 44777  97.4972 264.0319 0006731  51.9383 308.2469 15.39620330366694
NINGXIA-1 1             
1 44779U 19076A   26179.93909878 -.00000072  00000+0  37354-4 0  9997
2 44779  45.0047 127.3335 0011345 218.0365 141.9669 14.02039780339506
NINGXIA-1 5             
1 44783U 19076E   26179.95198809 -.00000160  00000+0 -19669-4 0  9996
2 44783  45.0038 126.6122 0010854 209.3621 150.6605 14.02087385339421
KL-ALPHA A              
1 44785U 19077A   26179.92630633  .00000069  00000+0  80341-4 0  9993
2 44785  88.9247 221.2812 0013363  77.4495 282.8153 13.56043961327322
CARTOSAT-3              
1 44804U 19081A   26179.94686501  .00003116  00000+0  15090-3 0  9991
2 44804  97.4309 241.6240 0013418 110.6121 249.6555 15.19218210365259
JILIN-1 GAOFEN 2B       
1 44836U 19086A   26179.92508549  .00005476  00000+0  25084-3 0  9999
2 44836  97.4885 251.8427 0012423 278.4529  81.5298 15.20834326362273
TIANQIN 1 (CAS-6)       
1 44879U 19093A   26179.93238747  .00001461  00000+0  13709-3 0  9996
2 44879  97.7822 263.6880 0011744  22.9489 337.2254 14.95491737353808
ETRSS-1                 
1 44880U 19093B   26179.93578583  .00000721  00000+0  69540-4 0  9996
2 44880  97.7839 264.1606 0011886  22.7357 337.4388 14.95930122353816
TIANYAN 01              
1 44881U 19093C   26179.95901360  .00001169  00000+0  13783-3 0  9996
2 44881  97.7533 251.9039 0014822  52.2139 308.0417 14.86538223353162
TIANYAN 02              
1 44882U 19093D   26179.95188002  .00006633  00000+0  46649-3 0  9995
2 44882  97.7938 274.8546 0013091 347.3825  12.7071 15.05355456354383
