OBJECT_NAME,OBJECT_ID,EPOCH,MEAN_MOTION,ECCENTRICITY,INCLINATION,RA_OF_ASC_NODE,ARG_OF_PERICENTER,MEAN_ANOMALY,EPHEMERIS_TYPE,CLASSIFICATION_TYPE,NORAD_CAT_ID,ELEMENT_SET_NO,REV_AT_EPOCH,BSTAR,MEAN_MOTION_DOT,MEAN_MOTION_DDOT
JILIN-1 GAOFEN 3A,2019-032C,2026-06-28T18:01:44.027328,15.32880918,.00057443,44.9756,293.2818,354.8072,5.2753,0,U,44312,999,38961,.33262157E-3,.10477E-3,0
WT 1B,2019-032G,2026-06-28T20:12:21.552768,15.27405233,.00099501,44.9711,357.3143,306.7326,53.2642,0,U,44316,999,38886,.37021958E-3,.9848E-4,0
PROX-1,2019-036A,2026-06-28T21:43:08.792832,14.90892987,.00055219,23.9961,35.9614,169.9714,190.0896,0,U,44339,999,37522,.12281426E-2,.12704E-3,0
NPSAT1,2019-036B,2026-06-28T23:01:51.765888,14.74679425,.00071404,23.9973,141.0772,346.4007,13.6296,0,U,44340,999,37423,.74696219E-3,.5347E-4,0
FORMOSAT 7-3,2019-036E,2026-06-28T21:08:58.268544,15.09876742,.00009829,23.9987,98.0469,67.5934,292.4674,0,U,44343,999,38501,.23345797E-3,.4227E-4,0
FORMOSAT 7-1,2019-036L,2026-06-28T17:10:03.444096,14.96554350,.00005775,23.9992,314.6743,347.1245,12.9241,0,U,44349,999,38638,.19444252E-3,.2569E-4,0
FORMOSAT 7-4,2019-036M,2026-06-28T20:54:32.277888,14.96546647,.00010093,23.9998,15.7272,344.8951,15.1520,0,U,44350,999,38582,.20196394E-3,.2656E-4,0
FORMOSAT 7-2,2019-036N,2026-06-28T23:02:43.698336,14.96544868,.00004691,23.9992,69.4409,356.4775,3.5723,0,U,44351,999,38535,.19478579E-3,.2572E-4,0
FORMOSAT 7-6,2019-036Q,2026-06-28T13:26:09.184128,14.96555263,.00008208,23.9971,252.9587,216.3971,143.6474,0,U,44353,999,38352,.17217663E-3,.231E-4,0
FORMOSAT 7-5,2019-036V,2026-06-28T08:05:19.390272,14.96557205,.00001471,23.9968,193.2086,38.9613,321.0899,0,U,44358,999,38402,.17363231E-3,.2326E-4,0
METEOR-M2 2,2019-038A,2026-06-28T23:25:06.408768,14.24368328,.00015746,98.9143,167.4351,31.4528,328.6745,0,U,44387,999,36297,-.5976762E-4,-.184E-5,0
GLOBAL-4,2019-054E,2026-06-28T16:41:22.324128,15.65411793,.00042731,45.0030,169.9455,56.3648,303.7657,0,U,44499,999,38216,.43666051E-3,.44547E-3,0
ZY-1 02D,2019-059A,2026-06-28T23:43:50.034720,14.35263842,.00039932,98.6727,241.4653,356.2215,3.8940,0,U,44528,999,35603,.23293754E-4,.22E-6,0
TAURUS-1 (JINNIUZUO 1),2019-059C,2026-06-28T22:23:56.142816,14.72213448,.00072867,98.6414,345.4908,273.2515,86.7857,0,U,44530,999,36037,.98932346E-3,.6191E-4,0
ZHUHAI-1 03B,2019-060C,2026-06-28T23:08:22.166880,15.54737139,.00075615,97.5533,338.3705,268.7531,91.2857,0,U,44536,999,37815,.42923939E-3,.2849E-3,0
ZHUHAI-1 03D,2019-060E,2026-06-28T23:20:56.773248,15.50416762,.00067259,97.5391,330.3985,252.0505,108.0013,0,U,44538,999,37790,.52163633E-3,.29661E-3,0
ZHUHAI-1 03E,2019-060F,2026-06-28T22:19:14.312928,15.41433126,.00049871,97.5620,330.2875,349.4330,10.6811,0,U,44539,999,37757,.38896557E-3,.16201E-3,0
GAOFEN-7,2019-072A,2026-06-28T23:20:44.691072,15.21346979,.00175636,97.2426,240.9945,1.1176,359.0097,0,U,44703,999,36943,.1754878E-3,.3879E-4,0
JILIN-1 GAOFEN 2A,2019-075A,2026-06-28T23:09:48.591936,15.39620330,.0006731,97.4972,264.0319,51.9383,308.2469,0,U,44777,999,36669,.35452647E-3,.13903E-3,0
NINGXIA-1 1,2019-076A,2026-06-28T22:32:18.134592,14.02039780,.00113457,45.0047,127.3335,218.0365,141.9669,0,U,44779,999,33950,.37354331E-4,-.72E-6,0
NINGXIA-1 5,2019-076E,2026-06-28T22:50:51.770976,14.02087385,.00108548,45.0038,126.6122,209.3621,150.6605,0,U,44783,999,33942,-.1966881E-4,-.16E-5,0
KL-ALPHA A,2019-077A,2026-06-28T22:13:52.866912,13.56043961,.00133634,88.9247,221.2812,77.4495,282.8153,0,U,44785,999,32732,.80340796E-4,.69E-6,0
CARTOSAT-3,2019-081A,2026-06-28T22:43:29.136864,15.19218210,.00134188,97.4309,241.6240,110.6121,249.6555,0,U,44804,999,36525,.15090293E-3,.3116E-4,0
JILIN-1 GAOFEN 2B,2019-086A,2026-06-28T22:12:07.386336,15.20834326,.00124231,97.4885,251.8427,278.4529,81.5298,0,U,44836,999,36227,.2508372E-3,.5476E-4,0
TIANQIN 1 (CAS-6),2019-093A,2026-06-28T22:22:38.277408,14.95491737,.00117448,97.7822,263.6880,22.9489,337.2254,0,U,44879,999,35380,.13708744E-3,.1461E-4,0
ETRSS-1,2019-093B,2026-06-28T22:27:31.895712,14.95930122,.00118862,97.7839,264.1606,22.7357,337.4388,0,U,44880,999,35381,.69539806E-4,.721E-5,0
TIANYAN 01,2019-093C,2026-06-28T23:00:58.775040,14.86538223,.00148222,97.7533,251.9039,52.2139,308.0417,0,U,44881,999,35316,.13782832E-3,.1169E-4,0
TIANYAN 02,2019-093D,2026-06-28T22:50:42.433728,15.05355456,.00130916,97.7938,274.8546,347.3825,12.7071,0,U,44882,999,35438,.46649069E-3,.6633E-4,0
